ONEWEB-0683             
1 56719U 23068K   26015.18018401 -.00000023  00000+0 -95607-4 0  9991
2 56719  87.9015 289.7243 0001646  84.2458 275.8859 13.15549031129304
ONEWEB-0684             
1 56720U 23068L   26014.80779697 -.00000114  00000+0 -33674-3 0  9998
2 56720  87.9011 289.7921 0000838  15.1431 344.9724 13.15549429129086
ONEWEB-0686             
1 56721U 23068M   26014.61976968  .00000017  00000+0  11076-4 0  9991
2 56721  87.9020 259.3858 0001220  89.1530 270.9741 13.17180171131500
ONEWEB-0694             
1 56722U 23068N   26015.07654100  .00000000  00000+0 -33004-4 0  9992
2 56722  87.9042 259.2274 0001612  94.8797 265.2518 13.16592895131620
ONEWEB-0696             
1 56723U 23068P   26014.76503326  .00000046  00000+0  88558-4 0  9994
2 56723  87.9007 289.8506 0001509  63.3136 296.8149 13.15549161129198
ONEWEB-0703             
1 56724U 23068Q   26015.15483360 -.00000016  00000+0 -75950-4 0  9995
2 56724  87.9004 289.7542 0001933  42.9559 317.1722 13.15548251129135
ONEWEB-0721             
1 56725U 23068R   26015.08074094 -.00000035  00000+0 -11939-3 0  9995
2 56725  86.6822 134.3738 0001548 106.4886 253.6417 13.22456722137709
ONEWEB-0015             
1 61594U 24188A   26015.10554053 -.00000070  00000+0 -23202-3 0  9995
2 61594  87.8819  51.5724 0002404  93.9802 266.1600 13.11413490 64393
